[
    {
        "Altitude(m)": 554398.9746985445,
        "Argument of Periapsis(deg)": 0.026491964442854003,
        "Eccentricity": 0.0,
        "Inclination(deg)": 53.0,
        "Latitude(deg)": -1.2245328880232147,
        "Longitude(deg)": -59.10184584497478,
        "Mean Anomaly(deg)": -1.4517285296896205,
        "RAAN(deg)": 44.96057347411207,
        "Satellite Name": "Starlink Shell 1 217",
        "Satellite Number": 217,
        "Semi-Major Axis(m)": 6931778.249405717,
        "Time(s)": 760
    },
    {
        "Altitude(m)": 554328.2162187583,
        "Argument of Periapsis(deg)": 0.02684054292236524,
        "Eccentricity": 0.0,
        "Inclination(deg)": 53.0,
        "Latitude(deg)": -0.7206528082025343,
        "Longitude(deg)": -58.76638149417081,
        "Mean Anomaly(deg)": -0.8248973261329123,
        "RAAN(deg)": 44.9600547040346,
        "Satellite Name": "Starlink Shell 1 217",
        "Satellite Number": 217,
        "Semi-Major Axis(m)": 6931778.249405717,
        "Time(s)": 770
    },
    {
        "Altitude(m)": 554260.2427809206,
        "Argument of Periapsis(deg)": 0.027189121401876473,
        "Eccentricity": 0.0,
        "Inclination(deg)": 53.0,
        "Latitude(deg)": -0.21673042496674028,
        "Longitude(deg)": -58.43099269419206,
        "Mean Anomaly(deg)": -0.19806612257615314,
        "RAAN(deg)": 44.95953593395713,
        "Satellite Name": "Starlink Shell 1 217",
        "Satellite Number": 217,
        "Semi-Major Axis(m)": 6931778.249405717,
        "Time(s)": 780
    },
    {
        "Altitude(m)": 554195.0636370921,
        "Argument of Periapsis(deg)": 0.02753769988138771,
        "Eccentricity": 0.0,
        "Inclination(deg)": 53.0,
        "Latitude(deg)": 0.2872113672992996,
        "Longitude(deg)": -58.09562141130722,
        "Mean Anomaly(deg)": 0.4287650809805107,
        "RAAN(deg)": 44.95901716387965,
        "Satellite Name": "Starlink Shell 1 217",
        "Satellite Number": 217,
        "Semi-Major Axis(m)": 6931778.249405717,
        "Time(s)": 790
    },
    {
        "Altitude(m)": 554132.6866847106,
        "Argument of Periapsis(deg)": 0.02788627836089895,
        "Eccentricity": 0.0,
        "Inclination(deg)": 53.0,
        "Latitude(deg)": 0.7911496754452592,
        "Longitude(deg)": -57.760210121247255,
        "Mean Anomaly(deg)": 1.05559628453727,
        "RAAN(deg)": 44.95849839380218,
        "Satellite Name": "Starlink Shell 1 217",
        "Satellite Number": 217,
        "Semi-Major Axis(m)": 6931778.249405717,
        "Time(s)": 800
    },
    {
        "Altitude(m)": 554073.1184654479,
        "Argument of Periapsis(deg)": 0.02823485684041019,
        "Eccentricity": 0.0,
        "Inclination(deg)": 53.0,
        "Latitude(deg)": 1.2950615958782665,
        "Longitude(deg)": -57.42470127968981,
        "Mean Anomaly(deg)": 1.6824274880939718,
        "RAAN(deg)": 44.95797962372471,
        "Satellite Name": "Starlink Shell 1 217",
        "Satellite Number": 217,
        "Semi-Major Axis(m)": 6931778.249405717,
        "Time(s)": 810
    },
    {
        "Altitude(m)": 554016.3641646778,
        "Argument of Periapsis(deg)": 0.028583435319921423,
        "Eccentricity": 0.0,
        "Inclination(deg)": 53.0,
        "Latitude(deg)": 1.7989242028780885,
        "Longitude(deg)": -57.08903679273438,
        "Mean Anomaly(deg)": 2.3092586916506863,
        "RAAN(deg)": 44.95746085364723,
        "Satellite Name": "Starlink Shell 1 217",
        "Satellite Number": 217,
        "Semi-Major Axis(m)": 6931778.249405717,
        "Time(s)": 820
    },
    {
        "Altitude(m)": 553962.4276116795,
        "Argument of Periapsis(deg)": 0.028932013799432665,
        "Eccentricity": 0.0,
        "Inclination(deg)": 53.0,
        "Latitude(deg)": 2.3027145368904915,
        "Longitude(deg)": -56.75315900023315,
        "Mean Anomaly(deg)": 2.936089895207446,
        "RAAN(deg)": 44.95694208356976,
        "Satellite Name": "Starlink Shell 1 217",
        "Satellite Number": 217,
        "Semi-Major Axis(m)": 6931778.249405717,
        "Time(s)": 830
    },
    {
        "Altitude(m)": 553911.3112804845,
        "Argument of Periapsis(deg)": 0.029280592278943897,
        "Eccentricity": 0.0,
        "Inclination(deg)": 53.0,
        "Latitude(deg)": 2.806409592790622,
        "Longitude(deg)": -56.417010146223696,
        "Mean Anomaly(deg)": 3.5629210987641033,
        "RAAN(deg)": 44.95642331349229,
        "Satellite Name": "Starlink Shell 1 217",
        "Satellite Number": 217,
        "Semi-Major Axis(m)": 6931778.249405717,
        "Time(s)": 840
    },
    {
        "Altitude(m)": 553863.0162914037,
        "Argument of Periapsis(deg)": 0.029629170758455132,
        "Eccentricity": 0.0,
        "Inclination(deg)": 53.0,
        "Latitude(deg)": 3.309986308104454,
        "Longitude(deg)": -56.08053184932952,
        "Mean Anomaly(deg)": 4.189752302320869,
        "RAAN(deg)": 44.95590454341481,
        "Satellite Name": "Starlink Shell 1 217",
        "Satellite Number": 217,
        "Semi-Major Axis(m)": 6931778.249405717,
        "Time(s)": 850
    },
    {
        "Altitude(m)": 553817.5424132355,
        "Argument of Periapsis(deg)": 0.02997774923796637,
        "Eccentricity": 0.0,
        "Inclination(deg)": 53.0,
        "Latitude(deg)": 3.8134215511739415,
        "Longitude(deg)": -55.74366625409131,
        "Mean Anomaly(deg)": 4.816583505877526,
        "RAAN(deg)": 44.95538577333734,
        "Satellite Name": "Starlink Shell 1 217",
        "Satellite Number": 217,
        "Semi-Major Axis(m)": 6931778.249405717,
        "Time(s)": 860
    },
    {
        "Altitude(m)": 553774.8880661706,
        "Argument of Periapsis(deg)": 0.030326327717477602,
        "Eccentricity": 0.0,
        "Inclination(deg)": 53.0,
        "Latitude(deg)": 4.316692109260419,
        "Longitude(deg)": -55.40635466079534,
        "Mean Anomaly(deg)": 5.443414709434285,
        "RAAN(deg)": 44.954867003259864,
        "Satellite Name": "Starlink Shell 1 217",
        "Satellite Number": 217,
        "Semi-Major Axis(m)": 6931778.249405717,
        "Time(s)": 870
    },
    {
        "Altitude(m)": 553735.0503253335,
        "Argument of Periapsis(deg)": 0.030674906196988847,
        "Eccentricity": 0.0,
        "Inclination(deg)": 53.0,
        "Latitude(deg)": 4.819774676567962,
        "Longitude(deg)": -55.068538676704996,
        "Mean Anomaly(deg)": 6.070245912990995,
        "RAAN(deg)": 44.954348233182394,
        "Satellite Name": "Starlink Shell 1 217",
        "Satellite Number": 217,
        "Semi-Major Axis(m)": 6931778.249405717,
        "Time(s)": 880
    },
    {
        "Altitude(m)": 553698.0249250159,
        "Argument of Periapsis(deg)": 0.031023484676500086,
        "Eccentricity": 0.0,
        "Inclination(deg)": 53.0,
        "Latitude(deg)": 5.322645842181339,
        "Longitude(deg)": -54.730159686260905,
        "Mean Anomaly(deg)": 6.697077116547702,
        "RAAN(deg)": 44.953829463104924,
        "Satellite Name": "Starlink Shell 1 217",
        "Satellite Number": 217,
        "Semi-Major Axis(m)": 6931778.249405717,
        "Time(s)": 890
    },
    {
        "Altitude(m)": 553663.8062635795,
        "Argument of Periapsis(deg)": 0.03137206315601132,
        "Eccentricity": 0.0,
        "Inclination(deg)": 53.0,
        "Latitude(deg)": 5.825282077903837,
        "Longitude(deg)": -54.391158321215386,
        "Mean Anomaly(deg)": 7.323908320104417,
        "RAAN(deg)": 44.95331069302745,
        "Satellite Name": "Starlink Shell 1 217",
        "Satellite Number": 217,
        "Semi-Major Axis(m)": 6931778.249405717,
        "Time(s)": 900
    },
    {
        "Altitude(m)": 553632.3874090129,
        "Argument of Periapsis(deg)": 0.03172064163552255,
        "Eccentricity": 0.0,
        "Inclination(deg)": 53.0,
        "Latitude(deg)": 6.327659725982979,
        "Longitude(deg)": -54.05147544356851,
        "Mean Anomaly(deg)": 7.950739523661126,
        "RAAN(deg)": 44.95279192294998,
        "Satellite Name": "Starlink Shell 1 217",
        "Satellite Number": 217,
        "Semi-Major Axis(m)": 6931778.249405717,
        "Time(s)": 910
    },
    {
        "Altitude(m)": 553603.760105174,
        "Argument of Periapsis(deg)": 0.0320692201150338,
        "Eccentricity": 0.0,
        "Inclination(deg)": 53.0,
        "Latitude(deg)": 6.829754986715064,
        "Longitude(deg)": -53.71105161555331,
        "Mean Anomaly(deg)": 8.577570727217886,
        "RAAN(deg)": 44.95227315287251,
        "Satellite Name": "Starlink Shell 1 217",
        "Satellite Number": 217,
        "Semi-Major Axis(m)": 6931778.249405717,
        "Time(s)": 920
    },
    {
        "Altitude(m)": 553577.9147786598,
        "Argument of Periapsis(deg)": 0.032417798594545036,
        "Eccentricity": 0.0,
        "Inclination(deg)": 53.0,
        "Latitude(deg)": 7.331543905915188,
        "Longitude(deg)": -53.369826569539995,
        "Mean Anomaly(deg)": 9.204401930774543,
        "RAAN(deg)": 44.95175438279502,
        "Satellite Name": "Starlink Shell 1 217",
        "Satellite Number": 217,
        "Semi-Major Axis(m)": 6931778.249405717,
        "Time(s)": 930
    },
    {
        "Altitude(m)": 553554.8405463523,
        "Argument of Periapsis(deg)": 0.03276637707405627,
        "Eccentricity": 0.0,
        "Inclination(deg)": 53.0,
        "Latitude(deg)": 7.833002362240576,
        "Longitude(deg)": -53.02774019072688,
        "Mean Anomaly(deg)": 9.83123313433125,
        "RAAN(deg)": 44.951235612717554,
        "Satellite Name": "Starlink Shell 1 217",
        "Satellite Number": 217,
        "Semi-Major Axis(m)": 6931778.249405717,
        "Time(s)": 940
    }
]